ORBCOMM FM37            
1 33064U 08031E   24325.21711003  .00003143  00000+0  45710-3 0  9999
2 33064  48.4396 256.0264 0005767 196.9139 324.7450 14.78213424883437
ORBCOMM FM40            
1 33065U 08031F   24325.21620941  .00004278  00000+0  58643-3 0  9999
2 33065  48.4412 243.2518 0007142 205.6276 308.4222 14.80025874883626
VESSELSAT 1             
1 37840U 11058C   24325.10192755  .00000498  00000+0  12735-3 0  9994
2 37840  19.9623 278.9893 0013751  47.3069 312.8492 14.11264893676968
ORBCOMM FM109           
1 40086U 14040A   24325.08967682  .00001788  00000+0  42578-3 0  9991
2 40086  47.0038 283.3422 0001647  55.3038 304.8002 14.57580510550674
ORBCOMM FM107           
1 40087U 14040B   24325.46953257  .00001552  00000+0  37485-3 0  9997
2 40087  47.0056 282.5776 0001279  17.9482 342.1449 14.57515510550720
ORBCOMM FM106           
1 40088U 14040C   24325.49404519  .00002607  00000+0  47806-3 0  9993
2 40088  47.0586 121.0216 0017859 181.1461 178.9391 14.68313922553007
ORBCOMM FM111           
1 40089U 14040D   24325.15898551  .00006834  00000+0  82777-3 0  9992
2 40089  47.0040   0.1749 0032584 274.6543  85.0631 14.84034314559152
ORBCOMM FM104           
1 40090U 14040E   24325.16448605  .00001533  00000+0  38287-3 0  9994
2 40090  47.0059 315.1598 0017379 328.6144  31.3702 14.55962291550254
